{
  "type": "FeatureCollection",
  "features": [
    {
      "type": "Feature",
      "properties": {
        "norad_id": 41890,
        "name": "CYGFM07",
        "group": "weather",
        "lat": 1.9075341408472035,
        "lon": -158.01182460218564,
        "alt_km": 410.06209975970705,
        "timestamp": "2025-12-12T05:47:28.414709+00:00",
        "meta_object_name": "CYGFM07",
        "meta_object_id": "2016-078G",
        "meta_epoch": "2025-12-11T12:01:43.381056",
        "meta_mean_motion": 15.49925306,
        "meta_eccentricity": 0.00097414,
        "meta_inclination": 34.9484,
        "meta_ra_of_asc_node": 29.5736,
        "meta_arg_of_pericenter": 205.3606,
        "meta_mean_anomaly": 154.6639,
        "meta_ephemeris_type": 0,
        "meta_classification_type": "U",
        "meta_norad_cat_id": 41890,
        "meta_element_set_no": 999,
        "meta_rev_at_epoch": 49976,
        "meta_bstar": 0.00063492627,
        "meta_mean_motion_dot": 0.00036799,
        "meta_mean_motion_ddot": 0,
        "tle_line1": "1 41890U 16078G   25345.50119654  .00036799  00000+0  63493-3 0  9995",
        "tle_line2": "2 41890  34.9484  29.5736 0009741 205.3606 154.6639 15.49925306499764"
      },
      "geometry": {
        "type": "Point",
        "coordinates": [
          -158.01182460218564,
          1.9075341408472035
        ]
      }
    },
    {
      "type": "Feature",
      "properties": {
        "norad_id": 41891,
        "name": "CYGFM03",
        "group": "weather",
        "lat": 6.558518920129103,
        "lon": 36.117144410084585,
        "alt_km": 421.18362575257015,
        "timestamp": "2025-12-12T05:47:28.414720+00:00",
        "meta_object_name": "CYGFM03",
        "meta_object_id": "2016-078H",
        "meta_epoch": "2025-12-11T11:11:26.566080",
        "meta_mean_motion": 15.49822944,
        "meta_eccentricity": 0.00091164,
        "meta_inclination": 34.9435,
        "meta_ra_of_asc_node": 31.7202,
        "meta_arg_of_pericenter": 192.4174,
        "meta_mean_anomaly": 167.6324,
        "meta_ephemeris_type": 0,
        "meta_classification_type": "U",
        "meta_norad_cat_id": 41891,
        "meta_element_set_no": 999,
        "meta_rev_at_epoch": 49973,
        "meta_bstar": 0.00063877072,
        "meta_mean_motion_dot": 0.0003688,
        "meta_mean_motion_ddot": 0,
        "tle_line1": "1 41891U 16078H   25345.46627970  .00036880  00000+0  63877-3 0  9993",
        "tle_line2": "2 41891  34.9435  31.7202 0009116 192.4174 167.6324 15.49822944499732"
      },
      "geometry": {
        "type": "Point",
        "coordinates": [
          36.117144410084585,
          6.558518920129103
        ]
      }
    },
    {
      "type": "Feature",
      "properties": {
        "norad_id": 43010,
        "name": "FENGYUN 3D",
        "group": "weather",
        "lat": -18.32308785902228,
        "lon": -44.451313152495665,
        "alt_km": 831.9886968438705,
        "timestamp": "2025-12-12T05:47:28.414730+00:00",
        "meta_object_name": "FENGYUN 3D",
        "meta_object_id": "2017-072A",
        "meta_epoch": "2025-12-12T00:48:14.655744",
        "meta_mean_motion": 14.19684413,
        "meta_eccentricity": 9.278e-05,
        "meta_inclination": 98.9893,
        "meta_ra_of_asc_node": 312.3329,
        "meta_arg_of_pericenter": 185.4674,
        "meta_mean_anomaly": 174.6491,
        "meta_ephemeris_type": 0,
        "meta_classification_type": "U",
        "meta_norad_cat_id": 43010,
        "meta_element_set_no": 999,
        "meta_rev_at_epoch": 41843,
        "meta_bstar": 0.00022787634,
        "meta_mean_motion_dot": 4.36e-06,
        "meta_mean_motion_ddot": 0,
        "tle_line1": "1 43010U 17072A   25346.03350296  .00000436  00000+0  22788-3 0  9995",
        "tle_line2": "2 43010  98.9893 312.3329 0000927 185.4674 174.6491 14.19684413418435"
      },
      "geometry": {
        "type": "Point",
        "coordinates": [
          -44.451313152495665,
          -18.32308785902228
        ]
      }
    },
    {
      "type": "Feature",
      "properties": {
        "norad_id": 43013,
        "name": "NOAA 20 (JPSS-1)",
        "group": "weather",
        "lat": 45.04293758585756,
        "lon": 111.42657259441222,
        "alt_km": 821.9838200074455,
        "timestamp": "2025-12-12T05:47:28.414741+00:00",
        "meta_object_name": "NOAA 20 (JPSS-1)",
        "meta_object_id": "2017-073A",
        "meta_epoch": "2025-12-11T22:23:41.079840",
        "meta_mean_motion": 14.1952541,
        "meta_eccentricity": 0.00021569,
        "meta_inclination": 98.7598,
        "meta_ra_of_asc_node": 282.2387,
        "meta_arg_of_pericenter": 88.3214,
        "meta_mean_anomaly": 271.8209,
        "meta_ephemeris_type": 0,
        "meta_classification_type": "U",
        "meta_norad_cat_id": 43013,
        "meta_element_set_no": 999,
        "meta_rev_at_epoch": 41790,
        "meta_bstar": 0.00010426277,
        "meta_mean_motion_dot": 1.76e-06,
        "meta_mean_motion_ddot": 0,
        "tle_line1": "1 43013U 17073A   25345.93311435  .00000176  00000+0  10426-3 0  9996",
        "tle_line2": "2 43013  98.7598 282.2387 0002156  88.3214 271.8209 14.19525410417903"
      },
      "geometry": {
        "type": "Point",
        "coordinates": [
          111.42657259441222,
          45.04293758585756
        ]
      }
    },
    {
      "type": "Feature",
      "properties": {
        "norad_id": 43226,
        "name": "GOES 17",
        "group": "weather",
        "lat": -0.06523523936317993,
        "lon": 78.57168493888348,
        "alt_km": 35799.39168537179,
        "timestamp": "2025-12-12T05:47:28.414755+00:00",
        "meta_object_name": "GOES 17",
        "meta_object_id": "2018-022A",
        "meta_epoch": "2025-12-11T23:21:28.019808",
        "meta_mean_motion": 1.00271668,
        "meta_eccentricity": 0.00032892,
        "meta_inclination": 0.4581,
        "meta_ra_of_asc_node": 89.1115,
        "meta_arg_of_pericenter": 187.3128,
        "meta_mean_anomaly": 65.3748,
        "meta_ephemeris_type": 0,
        "meta_classification_type": "U",
        "meta_norad_cat_id": 43226,
        "meta_element_set_no": 999,
        "meta_rev_at_epoch": 2854,
        "meta_bstar": 0,
        "meta_mean_motion_dot": -1.74e-06,
        "meta_mean_motion_ddot": 0,
        "tle_line1": "1 43226U 18022A   25345.97324097 -.00000174  00000+0  00000+0 0  9991",
        "tle_line2": "2 43226   0.4581  89.1115 0003289 187.3128  65.3748  1.00271668 28547"
      },
      "geometry": {
        "type": "Point",
        "coordinates": [
          78.57168493888348,
          -0.06523523936317993
        ]
      }
    },
    {
      "type": "Feature",
      "properties": {
        "norad_id": 43491,
        "name": "FENGYUN 2H",
        "group": "weather",
        "lat": 0.5944233558731042,
        "lon": -112.57135897526523,
        "alt_km": 35774.05574528668,
        "timestamp": "2025-12-12T05:47:28.414775+00:00",
        "meta_object_name": "FENGYUN 2H",
        "meta_object_id": "2018-050A",
        "meta_epoch": "2025-12-11T22:26:53.711232",
        "meta_mean_motion": 1.00271124,
        "meta_eccentricity": 0.00028704,
        "meta_inclination": 2.5491,
        "meta_ra_of_asc_node": 81.3369,
        "meta_arg_of_pericenter": 166.5326,
        "meta_mean_anomaly": 249.1026,
        "meta_ephemeris_type": 0,
        "meta_classification_type": "U",
        "meta_norad_cat_id": 43491,
        "meta_element_set_no": 999,
        "meta_rev_at_epoch": 2756,
        "meta_bstar": 0,
        "meta_mean_motion_dot": -1.21e-06,
        "meta_mean_motion_ddot": 0,
        "tle_line1": "1 43491U 18050A   25345.93534388 -.00000121  00000+0  00000+0 0  9990",
        "tle_line2": "2 43491   2.5491  81.3369 0002870 166.5326 249.1026  1.00271124 27562"
      },
      "geometry": {
        "type": "Point",
        "coordinates": [
          -112.57135897526523,
          0.5944233558731042
        ]
      }
    },
    {
      "type": "Feature",
      "properties": {
        "norad_id": 43689,
        "name": "METOP-C",
        "group": "weather",
        "lat": -81.14406737196427,
        "lon": 123.1163313858441,
        "alt_km": 828.231165685198,
        "timestamp": "2025-12-12T05:47:28.414787+00:00",
        "meta_object_name": "METOP-C",
        "meta_object_id": "2018-087A",
        "meta_epoch": "2025-12-11T23:26:56.161824",
        "meta_mean_motion": 14.21483933,
        "meta_eccentricity": 0.00012692,
        "meta_inclination": 98.6931,
        "meta_ra_of_asc_node": 43.7584,
        "meta_arg_of_pericenter": 40.4274,
        "meta_mean_anomaly": 319.6997,
        "meta_ephemeris_type": 0,
        "meta_classification_type": "U",
        "meta_norad_cat_id": 43689,
        "meta_element_set_no": 999,
        "meta_rev_at_epoch": 36823,
        "meta_bstar": 0.00011681465,
        "meta_mean_motion_dot": 2.12e-06,
        "meta_mean_motion_ddot": 0,
        "tle_line1": "1 43689U 18087A   25345.97703891  .00000212  00000+0  11681-3 0  9991",
        "tle_line2": "2 43689  98.6931  43.7584 0001269  40.4274 319.6997 14.21483933368232"
      },
      "geometry": {
        "type": "Point",
        "coordinates": [
          123.1163313858441,
          -81.14406737196427
        ]
      }
    }
  ]
}